
CZ-6A R/B
1 69400U 26124U   26175.23928632  .00000235  00000+0  44624-4 0  9993
2 69400  89.0257   1.1345 0099293  38.1179 322.7000 14.57306278  2882

CZ-8 R/B
1 69419U 26125U   26175.21922432  .00000091  00000+0  23036-4 0  9998
2 69419  88.9974 279.5840 0070182  58.7680 302.0373 14.39870445  2738

QIANFAN-176
1 69393U 26124M   26175.27214167  .00000124  00000+0  49552-4 0  9991
2 69393  88.9984   1.2256 0003100 153.7427 206.3922 14.21841841  2827

QIANFAN-177
1 69394U 26124N   26175.26592537  .00000133  00000+0  52833-4 0  9997
2 69394  88.9984   1.2246 0004250 130.4997 229.6565 14.22731275  2829

QIANFAN-178
1 69395U 26124P   26175.26882385  .00000132  00000+0  52940-4 0  9999
2 69395  88.9984   1.2250 0003526 139.4340 220.7114 14.22274883  2820

QIANFAN-179
1 69396U 26124Q   26175.26270281  .00000111  00000+0  42708-4 0  9994
2 69396  88.9984   1.2240 0003543 135.5761 224.5716 14.23097929  2828

QIANFAN-180
1 69397U 26124R   26175.25974807  .00000122  00000+0  47280-4 0  9991
2 69397  88.9984   1.2237 0003805 146.4342 213.7092 14.23619568  2828

QIANFAN-181
1 69398U 26124S   26175.24748364  .00000078  00000+0  31908-4 0  9998
2 69398  88.9984   1.2404 0002804 107.8229 252.3265 14.16649940  2817

QIANFAN-182
1 69399U 26124T   26175.22800950  .00000122  00000+0  52041-4 0  9998
2 69399  88.9984   1.2376 0002997 129.1675 230.9781 14.18739257  2819

QIANFAN-183
1 69401U 26125A   26175.19233570  .00000318  00000+0  15280-3 0  9997
2 69401  88.9952 279.6573 0015024 151.7172 208.4835 14.16463551  2691

QIANFAN-184
1 69402U 26125B   26175.25559507  .00000345  00000+0  16504-3 0  9996
2 69402  88.9953 279.6484 0015930 145.9531 214.2683 14.16883628  2703

QIANFAN-185
1 69403U 26125C   26175.25904976  .00000344  00000+0  16667-3 0  9990
2 69403  88.9953 279.6488 0016776 146.5448 213.6803 14.16088425  2700

QIANFAN-186
1 69404U 26125D   26175.24848556  .00000342  00000+0  16188-3 0  9997
2 69404  88.9953 279.6473 0015210 147.2561 212.9573 14.17434438  2707

QIANFAN-187
1 69405U 26125E   26175.31292926  .00000340  00000+0  15810-3 0  9999
2 69405  88.9953 279.6383 0015730 148.1758 212.0386 14.18345157  2717

QIANFAN-188
1 69406U 26125F   26175.16415765  .00000359  00000+0  16356-3 0  9997
2 69406  88.9953 279.6530 0015680 152.1462 208.0571 14.19437301  2695

QIANFAN-189
1 69407U 26125G   26175.30784676  .00000073  00000+0  28244-4 0  9997
2 69407  88.9953 279.6373 0014994 149.0012 211.2065 14.18755599  2712

QIANFAN-190
1 69408U 26125H   26175.30450823  .00000344  00000+0  15705-3 0  9990
2 69408  88.9953 279.6371 0015722 150.7584 209.4489 14.19219491  2710

QIANFAN-191
1 69409U 26125J   26175.15624055  .00000363  00000+0  16348-3 0  9999
2 69409  88.9953 279.6518 0015130 149.9489 210.2572 14.20090603  2695

QIANFAN-192
1 69410U 26125K   26175.15250774  .00000373  00000+0  16671-3 0  9994
2 69410  88.9953 279.6515 0015981 150.4153 209.7945 14.20516580  2697

QIANFAN-193
1 69411U 26125L   26175.28849040  .00000374  00000+0  16590-3 0  9990
2 69411  88.9953 279.6346 0015870 150.3737 209.8357 14.20959234  2712

QIANFAN-194
1 69412U 26125M   26175.21489184  .00000374  00000+0  16452-3 0  9990
2 69412  88.9953 279.6421 0015129 154.1369 206.0581 14.21400911  2696

QIANFAN-195
1 69413U 26125N   26175.21189292  .00000373  00000+0  16273-3 0  9998
2 69413  88.9953 279.6417 0016335 152.9294 207.2753 14.21798195  2705

QIANFAN-196
1 69414U 26125P   26175.27874314  .00000370  00000+0  16008-3 0  9994
2 69414  88.9954 279.6331 0016444 153.1561 207.0485 14.22293399  2711

QIANFAN-197
1 69415U 26125Q   26175.27614277  .00000370  00000+0  15875-3 0  9996
2 69415  88.9953 279.6327 0014741 150.0105 210.1934 14.22737861  2704

QIANFAN-198
1 69416U 26125R   26175.27914767  .00000376  00000+0  16340-3 0  9998
2 69416  88.9953 279.6332 0015057 149.4819 210.7252 14.22064594  2712

QIANFAN-199
1 69417U 26125S   26175.27120835  .00000085  00000+0  30622-4 0  9991
2 69417  88.9952 279.6319 0016834 150.5611 209.6533 14.23627130  2715

QIANFAN-200
1 69418U 26125T   26175.15905457  .00000074  00000+0  28048-4 0  9997
2 69418  88.9953 279.6523 0015820 148.9003 211.3126 14.19637315  2690

STARLINK-37537
1 69420U 26126A   26175.16165298  .00150337  00000+0  98924-3 0  9990
2 69420  97.2843  35.4814 0002084  59.1956 300.9514 15.75233655  3849

STARLINK-37573
1 69422U 26126C   26175.22835368  .00134719  00000+0  88745-3 0  9997
2 69422  97.2845  35.5433 0001392  67.7248 292.4164 15.75254055  3855

STARLINK-37585
1 69421U 26126B   26175.15106318  .00175405  00000+0  11516-2 0  9992
2 69421  97.2843  35.4956 0001355  94.2099 265.9321 15.75215843  3840
