OBJECT_NAME,OBJECT_ID,EPOCH,MEAN_MOTION,ECCENTRICITY,INCLINATION,RA_OF_ASC_NODE,ARG_OF_PERICENTER,MEAN_ANOMALY,EPHEMERIS_TYPE,CLASSIFICATION_TYPE,NORAD_CAT_ID,ELEMENT_SET_NO,REV_AT_EPOCH,BSTAR,MEAN_MOTION_DOT,MEAN_MOTION_DDOT
QIANFAN-176,2026-124M,2026-06-24T06:31:53.040288,14.21841841,.00031002,88.9984,1.2256,153.7427,206.3922,0,U,69393,999,282,.49551961E-4,.124E-5,0
QIANFAN-177,2026-124N,2026-06-24T06:22:55.951968,14.22731275,.00042506,88.9984,1.2246,130.4997,229.6565,0,U,69394,999,282,.52833298E-4,.133E-5,0
QIANFAN-178,2026-124P,2026-06-24T06:27:06.380640,14.22274883,.00035262,88.9984,1.2250,139.4340,220.7114,0,U,69395,999,282,.52939866E-4,.132E-5,0
QIANFAN-179,2026-124Q,2026-06-24T06:18:17.522784,14.23097929,.00035438,88.9984,1.2240,135.5761,224.5716,0,U,69396,999,282,.42708287E-4,.111E-5,0
QIANFAN-180,2026-124R,2026-06-24T06:14:02.233248,14.23619568,.00038058,88.9984,1.2237,146.4342,213.7092,0,U,69397,999,282,.47280381E-4,.122E-5,0
QIANFAN-181,2026-124S,2026-06-24T05:56:22.586496,14.16649940,.00028047,88.9984,1.2404,107.8229,252.3265,0,U,69398,999,281,.31907617E-4,.78E-6,0
QIANFAN-182,2026-124T,2026-06-24T05:28:20.020800,14.18739257,.00029971,88.9984,1.2376,129.1675,230.9781,0,U,69399,999,281,.52041451E-4,.122E-5,0
CZ-6A R/B,2026-124U,2026-06-24T05:44:34.338048,14.57306278,.0099293,89.0257,1.1345,38.1179,322.7000,0,U,69400,999,288,.44624388E-4,.235E-5,0
QIANFAN-183,2026-125A,2026-06-24T04:36:57.804480,14.16463551,.00150246,88.9952,279.6573,151.7172,208.4835,0,U,69401,999,269,.15280244E-3,.318E-5,0
QIANFAN-184,2026-125B,2026-06-24T06:08:03.414048,14.16883628,.00159305,88.9953,279.6484,145.9531,214.2683,0,U,69402,999,270,.16504139E-3,.345E-5,0
QIANFAN-185,2026-125C,2026-06-24T06:13:01.899264,14.16088425,.00167768,88.9953,279.6488,146.5448,213.6803,0,U,69403,999,270,.16666635E-3,.344E-5,0
QIANFAN-186,2026-125D,2026-06-24T05:57:49.152384,14.17434438,.00152107,88.9953,279.6473,147.2561,212.9573,0,U,69404,999,270,.16188075E-3,.342E-5,0
QIANFAN-187,2026-125E,2026-06-24T07:30:37.088064,14.18345157,.00157301,88.9953,279.6383,148.1758,212.0386,0,U,69405,999,271,.15810225E-3,.34E-5,0
QIANFAN-188,2026-125F,2026-06-24T03:56:23.220960,14.19437301,.00156802,88.9953,279.6530,152.1462,208.0571,0,U,69406,999,269,.16355515E-3,.359E-5,0
QIANFAN-189,2026-125G,2026-06-24T07:23:17.960064,14.18755599,.00149947,88.9953,279.6373,149.0012,211.2065,0,U,69407,999,271,.28244321E-4,.73E-6,0
QIANFAN-190,2026-125H,2026-06-24T07:18:29.511072,14.19219491,.00157227,88.9953,279.6371,150.7584,209.4489,0,U,69408,999,271,.15705226E-3,.344E-5,0
QIANFAN-191,2026-125J,2026-06-24T03:44:59.183520,14.20090603,.00151306,88.9953,279.6518,149.9489,210.2572,0,U,69409,999,269,.16347594E-3,.363E-5,0
QIANFAN-192,2026-125K,2026-06-24T03:39:36.668736,14.20516580,.00159818,88.9953,279.6515,150.4153,209.7945,0,U,69410,999,269,.16671112E-3,.373E-5,0
QIANFAN-193,2026-125L,2026-06-24T06:55:25.570560,14.20959234,.00158702,88.9953,279.6346,150.3737,209.8357,0,U,69411,999,271,.16589563E-3,.374E-5,0
QIANFAN-194,2026-125M,2026-06-24T05:09:26.654976,14.21400911,.00151299,88.9953,279.6421,154.1369,206.0581,0,U,69412,999,269,.16452435E-3,.374E-5,0
QIANFAN-195,2026-125N,2026-06-24T05:05:07.548288,14.21798195,.00163352,88.9953,279.6417,152.9294,207.2753,0,U,69413,999,270,.16273167E-3,.373E-5,0
QIANFAN-196,2026-125P,2026-06-24T06:41:23.407296,14.22293399,.00164445,88.9954,279.6331,153.1561,207.0485,0,U,69414,999,271,.16008178E-3,.37E-5,0
QIANFAN-197,2026-125Q,2026-06-24T06:37:38.735328,14.22737861,.00147412,88.9953,279.6327,150.0105,210.1934,0,U,69415,999,270,.158746E-3,.37E-5,0
QIANFAN-198,2026-125R,2026-06-24T06:41:58.358688,14.22064594,.00150572,88.9953,279.6332,149.4819,210.7252,0,U,69416,999,271,.16340485E-3,.376E-5,0
QIANFAN-199,2026-125S,2026-06-24T06:30:32.401440,14.23627130,.00168341,88.9952,279.6319,150.5611,209.6533,0,U,69417,999,271,.30621802E-4,.85E-6,0
QIANFAN-200,2026-125T,2026-06-24T03:49:02.314848,14.19637315,.001582,88.9953,279.6523,148.9003,211.3126,0,U,69418,999,269,.28048453E-4,.74E-6,0
CZ-8 R/B,2026-125U,2026-06-24T05:15:40.981248,14.39870445,.00701823,88.9974,279.5840,58.7680,302.0373,0,U,69419,999,273,.23035578E-4,.91E-6,0
STARLINK-37537,2026-126A,2026-06-24T03:52:46.817472,15.75233655,.00020842,97.2843,35.4814,59.1956,300.9514,0,U,69420,999,384,.98924208E-3,.150337E-2,0
STARLINK-37585,2026-126B,2026-06-24T03:37:31.858752,15.75215843,.00013553,97.2843,35.4956,94.2099,265.9321,0,U,69421,999,384,.11515787E-2,.175405E-2,0
STARLINK-37573,2026-126C,2026-06-24T05:28:49.757952,15.75254055,.00013922,97.2845,35.5433,67.7248,292.4164,0,U,69422,999,385,.8874475E-3,.134719E-2,0
